CCSDS_OMM_VERS = 2.0
CREATION_DATE  = 
ORIGINATOR     = 

OBJECT_NAME    = STARLINK-36910
OBJECT_ID      = 2026-039V
CENTER_NAME    = EARTH
REF_FRAME      = TEME
TIME_SYSTEM    = UTC
MEAN_ELEMENT_THEORY = SGP/SGP4

EPOCH          = 2026-03-09T20:00:00.999360
MEAN_MOTION    = 15.85451050
ECCENTRICITY   = .000154
INCLINATION    = 42.9978
RA_OF_ASC_NODE = 53.8763
ARG_OF_PERICENTER = 261.5845
MEAN_ANOMALY   = 313.5391

EPHEMERIS_TYPE = 0
CLASSIFICATION_TYPE = U
NORAD_CAT_ID   = 68005
ELEMENT_SET_NO = 999
REV_AT_EPOCH   = 290
BSTAR          = -.7253E-2
MEAN_MOTION_DOT = -.1579192E-1
MEAN_MOTION_DDOT = 0

CCSDS_OMM_VERS = 2.0
CREATION_DATE  = 
ORIGINATOR     = 

OBJECT_NAME    = STARLINK-36889
OBJECT_ID      = 2026-039W
CENTER_NAME    = EARTH
REF_FRAME      = TEME
TIME_SYSTEM    = UTC
MEAN_ELEMENT_THEORY = SGP/SGP4

EPOCH          = 2026-03-09T20:00:00.999360
MEAN_MOTION    = 15.85775543
ECCENTRICITY   = .0001395
INCLINATION    = 42.9978
RA_OF_ASC_NODE = 53.8570
ARG_OF_PERICENTER = 263.3799
MEAN_ANOMALY   = 319.0827

EPHEMERIS_TYPE = 0
CLASSIFICATION_TYPE = U
NORAD_CAT_ID   = 68006
ELEMENT_SET_NO = 999
REV_AT_EPOCH   = 290
BSTAR          = -.71775E-2
MEAN_MOTION_DOT = -.1586683E-1
MEAN_MOTION_DDOT = 0

CCSDS_OMM_VERS = 2.0
CREATION_DATE  = 
ORIGINATOR     = 

OBJECT_NAME    = STARLINK-36592
OBJECT_ID      = 2026-039X
CENTER_NAME    = EARTH
REF_FRAME      = TEME
TIME_SYSTEM    = UTC
MEAN_ELEMENT_THEORY = SGP/SGP4

EPOCH          = 2026-03-09T20:00:00.999360
MEAN_MOTION    = 15.85921798
ECCENTRICITY   = .0001463
INCLINATION    = 42.9975
RA_OF_ASC_NODE = 53.8486
ARG_OF_PERICENTER = 260.2786
MEAN_ANOMALY   = 325.8458

EPHEMERIS_TYPE = 0
CLASSIFICATION_TYPE = U
NORAD_CAT_ID   = 68007
ELEMENT_SET_NO = 999
REV_AT_EPOCH   = 290
BSTAR          = -.70628E-2
MEAN_MOTION_DOT = -.1574422E-1
MEAN_MOTION_DDOT = 0

CCSDS_OMM_VERS = 2.0
CREATION_DATE  = 
ORIGINATOR     = 

OBJECT_NAME    = STARLINK-36911
OBJECT_ID      = 2026-039Y
CENTER_NAME    = EARTH
REF_FRAME      = TEME
TIME_SYSTEM    = UTC
MEAN_ELEMENT_THEORY = SGP/SGP4

EPOCH          = 2026-03-09T20:00:00.999360
MEAN_MOTION    = 15.86058605
ECCENTRICITY   = .0001579
INCLINATION    = 42.9978
RA_OF_ASC_NODE = 53.8391
ARG_OF_PERICENTER = 257.6667
MEAN_ANOMALY   = 332.1750

EPHEMERIS_TYPE = 0
CLASSIFICATION_TYPE = U
NORAD_CAT_ID   = 68008
ELEMENT_SET_NO = 999
REV_AT_EPOCH   = 290
BSTAR          = -.70331E-2
MEAN_MOTION_DOT = -.1578038E-1
MEAN_MOTION_DDOT = 0

CCSDS_OMM_VERS = 2.0
CREATION_DATE  = 
ORIGINATOR     = 

OBJECT_NAME    = STARLINK-36956
OBJECT_ID      = 2026-039Z
CENTER_NAME    = EARTH
REF_FRAME      = TEME
TIME_SYSTEM    = UTC
MEAN_ELEMENT_THEORY = SGP/SGP4

EPOCH          = 2026-03-09T18:00:01.999296
MEAN_MOTION    = 15.86521495
ECCENTRICITY   = .0001517
INCLINATION    = 42.9974
RA_OF_ASC_NODE = 54.3435
ARG_OF_PERICENTER = 264.7926
MEAN_ANOMALY   = 212.2625

EPHEMERIS_TYPE = 0
CLASSIFICATION_TYPE = U
NORAD_CAT_ID   = 68009
ELEMENT_SET_NO = 999
REV_AT_EPOCH   = 288
BSTAR          = -.70832E-2
MEAN_MOTION_DOT = -.1619966E-1
MEAN_MOTION_DDOT = 0

CCSDS_OMM_VERS = 2.0
CREATION_DATE  = 
ORIGINATOR     = 

OBJECT_NAME    = STARLINK-36953
OBJECT_ID      = 2026-039AA
CENTER_NAME    = EARTH
REF_FRAME      = TEME
TIME_SYSTEM    = UTC
MEAN_ELEMENT_THEORY = SGP/SGP4

EPOCH          = 2026-03-09T18:00:01.999296
MEAN_MOTION    = 15.86769366
ECCENTRICITY   = .0001511
INCLINATION    = 42.9974
RA_OF_ASC_NODE = 54.3243
ARG_OF_PERICENTER = 270.7595
MEAN_ANOMALY   = 213.7043

EPHEMERIS_TYPE = 0
CLASSIFICATION_TYPE = U
NORAD_CAT_ID   = 68010
ELEMENT_SET_NO = 999
REV_AT_EPOCH   = 288
BSTAR          = -.70312E-2
MEAN_MOTION_DOT = -.162701E-1
MEAN_MOTION_DDOT = 0

CCSDS_OMM_VERS = 2.0
CREATION_DATE  = 
ORIGINATOR     = 

OBJECT_NAME    = STARLINK-36991
OBJECT_ID      = 2026-039AB
CENTER_NAME    = EARTH
REF_FRAME      = TEME
TIME_SYSTEM    = UTC
MEAN_ELEMENT_THEORY = SGP/SGP4

EPOCH          = 2026-03-09T18:00:01.999296
MEAN_MOTION    = 15.86892546
ECCENTRICITY   = .0001594
INCLINATION    = 42.9973
RA_OF_ASC_NODE = 54.3154
ARG_OF_PERICENTER = 269.5070
MEAN_ANOMALY   = 218.6240

EPHEMERIS_TYPE = 0
CLASSIFICATION_TYPE = U
NORAD_CAT_ID   = 68011
ELEMENT_SET_NO = 999
REV_AT_EPOCH   = 288
BSTAR          = -.69853E-2
MEAN_MOTION_DOT = -.1626505E-1
MEAN_MOTION_DDOT = 0

CCSDS_OMM_VERS = 2.0
CREATION_DATE  = 
ORIGINATOR     = 

OBJECT_NAME    = STARLINK-36936
OBJECT_ID      = 2026-039AC
CENTER_NAME    = EARTH
REF_FRAME      = TEME
TIME_SYSTEM    = UTC
MEAN_ELEMENT_THEORY = SGP/SGP4

EPOCH          = 2026-03-09T18:00:01.999296
MEAN_MOTION    = 15.87151964
ECCENTRICITY   = .0001507
INCLINATION    = 42.9972
RA_OF_ASC_NODE = 54.2966
ARG_OF_PERICENTER = 267.0727
MEAN_ANOMALY   = 228.3136

EPHEMERIS_TYPE = 0
CLASSIFICATION_TYPE = U
NORAD_CAT_ID   = 68012
ELEMENT_SET_NO = 999
REV_AT_EPOCH   = 288
BSTAR          = -.69068E-2
MEAN_MOTION_DOT = -.1628771E-1
MEAN_MOTION_DDOT = 0

CCSDS_OMM_VERS = 2.0
CREATION_DATE  = 
ORIGINATOR     = 

OBJECT_NAME    = STARLINK-36967
OBJECT_ID      = 2026-039AD
CENTER_NAME    = EARTH
REF_FRAME      = TEME
TIME_SYSTEM    = UTC
MEAN_ELEMENT_THEORY = SGP/SGP4

EPOCH          = 2026-03-09T18:00:01.999296
MEAN_MOTION    = 15.86646342
ECCENTRICITY   = .0001622
INCLINATION    = 42.9973
RA_OF_ASC_NODE = 54.3335
ARG_OF_PERICENTER = 265.1405
MEAN_ANOMALY   = 215.5814

EPHEMERIS_TYPE = 0
CLASSIFICATION_TYPE = U
NORAD_CAT_ID   = 68013
ELEMENT_SET_NO = 999
REV_AT_EPOCH   = 288
BSTAR          = -.70126E-2
MEAN_MOTION_DOT = -.1614688E-1
MEAN_MOTION_DDOT = 0

CCSDS_OMM_VERS = 2.0
CREATION_DATE  = 
ORIGINATOR     = 

OBJECT_NAME    = STARLINK-36985
OBJECT_ID      = 2026-039AE
CENTER_NAME    = EARTH
REF_FRAME      = TEME
TIME_SYSTEM    = UTC
MEAN_ELEMENT_THEORY = SGP/SGP4

EPOCH          = 2026-03-09T18:00:01.999296
MEAN_MOTION    = 15.87028553
ECCENTRICITY   = .00016
INCLINATION    = 42.9973
RA_OF_ASC_NODE = 54.3062
ARG_OF_PERICENTER = 264.9670
MEAN_ANOMALY   = 226.7499

EPHEMERIS_TYPE = 0
CLASSIFICATION_TYPE = U
NORAD_CAT_ID   = 68014
ELEMENT_SET_NO = 999
REV_AT_EPOCH   = 288
BSTAR          = -.6935E-2
MEAN_MOTION_DOT = -.1625881E-1
MEAN_MOTION_DDOT = 0

CCSDS_OMM_VERS = 2.0
CREATION_DATE  = 
ORIGINATOR     = 

OBJECT_NAME    = STARLINK-36335
OBJECT_ID      = 2026-040A
CENTER_NAME    = EARTH
REF_FRAME      = TEME
TIME_SYSTEM    = UTC
MEAN_ELEMENT_THEORY = SGP/SGP4

EPOCH          = 2026-03-09T18:00:01.999296
MEAN_MOTION    = 16.05157790
ECCENTRICITY   = .0001154
INCLINATION    = 97.2786
RA_OF_ASC_NODE = 16.9284
ARG_OF_PERICENTER = 91.3013
MEAN_ANOMALY   = 15.1825

EPHEMERIS_TYPE = 0
CLASSIFICATION_TYPE = U
NORAD_CAT_ID   = 68015
ELEMENT_SET_NO = 999
REV_AT_EPOCH   = 238
BSTAR          = -.13872E-2
MEAN_MOTION_DOT = -.947756E-2
MEAN_MOTION_DDOT = .31519E-3

CCSDS_OMM_VERS = 2.0
CREATION_DATE  = 
ORIGINATOR     = 

OBJECT_NAME    = STARLINK-36923
OBJECT_ID      = 2026-040B
CENTER_NAME    = EARTH
REF_FRAME      = TEME
TIME_SYSTEM    = UTC
MEAN_ELEMENT_THEORY = SGP/SGP4

EPOCH          = 2026-03-09T18:00:01.999296
MEAN_MOTION    = 16.05419609
ECCENTRICITY   = .0001075
INCLINATION    = 97.2786
RA_OF_ASC_NODE = 16.9310
ARG_OF_PERICENTER = 77.1743
MEAN_ANOMALY   = 34.4056

EPHEMERIS_TYPE = 0
CLASSIFICATION_TYPE = U
NORAD_CAT_ID   = 68016
ELEMENT_SET_NO = 999
REV_AT_EPOCH   = 243
BSTAR          = -.14676E-2
MEAN_MOTION_DOT = -.1018074E-1
MEAN_MOTION_DDOT = .36098E-3

