STARLINK-36910          
1 68005U 26039V   26068.83334490 -.01579192  00000+0 -72530-2 0  9999
2 68005  42.9978  53.8763 0001540 261.5845 313.5391 15.85451050  2903
STARLINK-36889          
1 68006U 26039W   26068.83334490 -.01586683  00000+0 -71775-2 0  9993
2 68006  42.9978  53.8570 0001395 263.3799 319.0827 15.85775543  2907
STARLINK-36592          
1 68007U 26039X   26068.83334490 -.01574422  00000+0 -70628-2 0  9998
2 68007  42.9975  53.8486 0001463 260.2786 325.8458 15.85921798  2909
STARLINK-36911          
1 68008U 26039Y   26068.83334490 -.01578038  00000+0 -70331-2 0  9997
2 68008  42.9978  53.8391 0001579 257.6667 332.1750 15.86058605  2909
STARLINK-36956          
1 68009U 26039Z   26068.75002314 -.01619966  00000+0 -70832-2 0  9998
2 68009  42.9974  54.3435 0001517 264.7926 212.2625 15.86521495  2888
STARLINK-36953          
1 68010U 26039AA  26068.75002314 -.01627010  00000+0 -70312-2 0  9992
2 68010  42.9974  54.3243 0001511 270.7595 213.7043 15.86769366  2881
STARLINK-36991          
1 68011U 26039AB  26068.75002314 -.01626505  00000+0 -69853-2 0  9999
2 68011  42.9973  54.3154 0001594 269.5070 218.6240 15.86892546  2887
STARLINK-36936          
1 68012U 26039AC  26068.75002314 -.01628771  00000+0 -69068-2 0  9995
2 68012  42.9972  54.2966 0001507 267.0727 228.3136 15.87151964  2888
STARLINK-36967          
1 68013U 26039AD  26068.75002314 -.01614688  00000+0 -70126-2 0  9995
2 68013  42.9973  54.3335 0001622 265.1405 215.5814 15.86646342  2880
STARLINK-36985          
1 68014U 26039AE  26068.75002314 -.01625881  00000+0 -69350-2 0  9990
2 68014  42.9973  54.3062 0001600 264.9670 226.7499 15.87028553  2887
STARLINK-36335          
1 68015U 26040A   26068.75002314 -.00947756  31519-3 -13872-2 0  9991
2 68015  97.2786  16.9284 0001154  91.3013  15.1825 16.05157790  2385
STARLINK-36923          
1 68016U 26040B   26068.75002314 -.01018074  36098-3 -14676-2 0  9995
2 68016  97.2786  16.9310 0001075  77.1743  34.4056 16.05419609  2436
